name,cuisine_type,foursquare_v1,yelp_url,menupages_url,grubhub_url,address_description,address_1,city_town,state_province,postal_code,phone,fax,website_url
Ann Sather,Scandinavian,93955,http://www.yelp.com/biz/ann-sather-restaurant-chicago,http://chicago.menupages.com/restaurants/ann-sather-2/,,,3411 N Broadway St,Chicago,IL,60657,(773) 305-0024,,http://annsather.com/Restaraunts%2520Pages/Belmont_Bkfst.html
Ann Sather,Scandinavian,48343,http://www.yelp.com/biz/ann-sathers-chicago-2,http://chicago.menupages.com/restaurants/ann-sather/,,,3416 N Southport Ave,Chicago,IL,60657,(773) 404-4475,,http://annsather.com/restaurants/locations.shtml
Ann Sather,Scandinavian,49502,http://www.yelp.com/biz/ann-sather-chicago,http://chicago.menupages.com/restaurants/ann-sather-4/,,,5207 N Clark St,Chicago,IL,60640,(773) 271-6677,,http://annsather.com/
Ann Sather,Scandinavian,415229,http://www.yelp.com/biz/ann-sather-chicago-2,http://chicago.menupages.com/restaurants/ann-sather-3/,,,909 W Belmont Ave,Chicago,IL,60657,(773) 348-2378,,http://annsather.com
Arun's Thai Restaurant,Thai,98972,http://www.yelp.com/biz/aruns-thai-restaurant-chicago,http://chicago.menupages.com/restaurants/aruns/,,,4156 N Kedzie Ave,Chicago,IL,60618,(773) 539-1909,,http://www.arunsthai.com
Athena Restaurant,Greek,88531,http://www.yelp.com/biz/athena-restaurant-chicago,http://chicago.menupages.com/restaurants/athena/,,,212 S Halsted St,Chicago,IL,60661,(312) 655-0000,,http://www.athenarestaurantchicago.com/
Avec,French,17662,http://www.yelp.com/biz/avec-chicago,http://chicago.menupages.com/restaurants/avec/,,,615 W Randolph St,Chicago,IL,60606,(312) 377-2002,,http://www.avecrestaurant.com
Bar Louie,Nightlife,2500961,http://www.yelp.com/biz/bar-louie-chicago-3,http://chicago.menupages.com/restaurants/bar-louie-5/,,,5500 S Shore Dr,Chicago,IL,60686,(773) 363-5300,,http://www..barlouieamerica.com/hydeparkhtml
Ben Pao,Chinese,87456,http://www.yelp.com/biz/ben-pao-chicago,http://chicago.menupages.com/restaurants/ben-pao/,,,52 W Illinois St,Chicago,IL,60654,(312) 222-1888,,http://www..BenPao.com
Bin 36,Wine Bars,40700,http://www.yelp.com/biz/bin-36-chicago,http://chicago.menupages.com/restaurants/bin-36/,,,339 N Dearborn St,Chicago,IL,60654,(312) 755-9463,,http://www.bin36.com
Bistro 110,French,105427,http://www.yelp.com/biz/bistro-110-chicago,http://chicago.menupages.com/restaurants/bistro-110/,,,110 E Pearson St,Chicago,IL,60611,(312) 266-3110,,http://www.bistro110restaurant.com
Bistrot Zinc,French,82375,http://www.yelp.com/biz/bistrot-zinc-chicago,http://chicago.menupages.com/restaurants/bistrot-zinc/,,,1131 N State St,Chicago,IL,60611,(312) 337-1131,,http://www.bistrotzinc.com
Blackbird,American (New),45062,http://www.yelp.com/biz/blackbird-chicago,http://chicago.menupages.com/restaurants/blackbird/,,,619 W Randolph St,Chicago,IL,60606,(312) 715-0708,,http://www.blackbirdrestaurant.com
Boka,American (New),71082,http://www.yelp.com/biz/boka-chicago,http://chicago.menupages.com/restaurants/boka/,,,1729 N Halsted St,Chicago,IL,60614,(312) 337-6070,,http://www.bokachicago.com
Bongo Room,Breakfast & Brunch,262051,http://www.yelp.com/biz/bongo-room-chicago,http://chicago.menupages.com/restaurants/bongo-room-2/,,,1152 S Wabash Ave,Chicago,IL,60605,(312) 291-0100,,http://www.thebongoroom.com
Bonjour Cafe Bakery,Bakeries,68369,http://www.yelp.com/biz/bonjour-cafe-bakery-chicago,http://chicago.menupages.com/restaurants/bonjour-bakery-cafe/,,,1550 E 55th St,Chicago,IL,60615,(773) 241-5300
Cafe 28,Cuban,3065,http://www.yelp.com/biz/cafe-28-chicago,http://chicago.menupages.com/restaurants/cafe-28/,,,1800 W Irving Park Rd,Chicago,IL,60613,(773) 528-2883,,http://www.cafe28org
Cafe Ba-Ba-Reeba,Spanish,17916,http://www.yelp.com/biz/cafe-ba-ba-reeba-chicago,http://chicago.menupages.com/restaurants/cafe-ba-ba-reeba/,,,2024 N Halsted St,Chicago,IL,60614,(773) 935-5000,,http://www.cafebabareeba.com
Café Spiaggia,Italian,54007,http://www.yelp.com/biz/cafe-spiaggia-chicago-2,http://chicago.menupages.com/restaurants/cafe-spiaggia/,,,980 N Michigan Ave Fl 2,Chicago,IL,60611,(312) 280-2750,,http://www.spiaggiarestaurant.com/%23/cafe/general-info/
Calypso Cafe,Caribbean,153447,http://www.yelp.com/biz/calypso-cafe-chicago,http://chicago.menupages.com/restaurants/calypso-cafe/,,Harper Court,5211 S Harper Ave,Chicago,IL,60615,(773) 955-0229,,http://www.calypsocafechicago.com
Carmine's,Italian,65833,http://www.yelp.com/biz/carmines-chicago,http://chicago.menupages.com/restaurants/carmines/,,,1043 N Rush St,Chicago,IL,60611,(312) 988-7676,,http://www.rosebudrestaurants.com
Carnivale,Latin American,69096,http://www.yelp.com/biz/carnivale-chicago-2,http://chicago.menupages.com/restaurants/carnivale/,,,702 W Fulton St,Chicago,IL,60661,(312) 850-5005,,http://www.carnivalechicago.com
Carson's Ribs & Steaks Downtown,Barbeque,74295,http://www.yelp.com/biz/carsons-ribs-and-steaks-downtown-chicago,http://chicago.menupages.com/restaurants/carsons/,,,612 N Wells St,Chicago,IL,60610,(312) 280-9200,,http://www.ribs.com
Catch 35,Seafood,376753,http://www.yelp.com/biz/catch-35-chicago,http://chicago.menupages.com/restaurants/catch-thirty-five/,,,35 W Wacker Dr,Chicago,IL,60601,(312) 346-3500,,http://www.catch35.com
Cedars Mediterranean Kitchen,Middle Eastern,172421,http://www.yelp.com/biz/cedars-mediterranean-kitchen-chicago,http://chicago.menupages.com/restaurants/cedars/,,,1206 E 53rd St,Chicago,IL,60615,(773) 324-6227,,http://www.eatcedars.com
Chalkboard,American (New),237973,http://www.yelp.com/biz/chalkboard-chicago,http://chicago.menupages.com/restaurants/chalkboard/,,,4343 N Lincoln Ave,Chicago,IL,60618,(773) 477-7144,,http://www.chalkboardrestaurant.com
Chant,Asian Fusion,978411,http://www.yelp.com/biz/chant-chicago,http://chicago.menupages.com/restaurants/chant/,,,1509 E 53rd St,Chicago,IL,60615,(773) 955-2200,,http://www.chantchicago.com
Chicago Chop House,Steakhouses,3195,http://www.yelp.com/biz/chicago-chop-house-chicago,http://chicago.menupages.com/restaurants/chicago-chop-house/,,,60 W Ontario St,Chicago,IL,60610,(312) 787-7100,,http://www.chicagochophouse.com/homehtm
Chief O'Neill's Pub & Restaurant,Irish,121327,http://www.yelp.com/biz/chief-oneills-pub-and-restaurant-chicago,http://chicago.menupages.com/restaurants/chief-oneills-pub/,,,3471 N Elston Ave,Chicago,IL,60618,(773) 583-3066,,http://www.chiefoneillspub.com
Cholie's Pizza,Pizza,955181,http://www.yelp.com/biz/cholies-pizza-chicago-3,http://chicago.menupages.com/restaurants/cholies-pizza/,,,1601 E 53rd St,Chicago,IL,60615,(773) 684-8688
Crofton On Wells,American (New),178205,http://www.yelp.com/biz/crofton-on-wells-chicago,http://chicago.menupages.com/restaurants/crofton-on-wells/,,,535 N Wells St,Chicago,IL,60610,(312) 755-1790,,http://www.croftononwells.com
Edwardo's of Hyde Park,Pizza,311438,http://www.yelp.com/biz/edwardos-of-hyde-park-chicago,http://chicago.menupages.com/restaurants/edwardos-natural-pizza-2/,,,1321 E 57th St,Chicago,IL,60637,(773) 241-7960
Erwin,American (New),154336,http://www.yelp.com/biz/erwin-chicago,http://chicago.menupages.com/restaurants/erwin/,,,2925 N Halsted St,Chicago,IL,60657,(773) 528-7200,,http://www.erwincafe.com/
Ethiopian Diamond Restaurant & Bar,Ethiopian,1212776,http://www.yelp.com/biz/ethiopian-diamond-restaurant-and-bar-chicago,,,,7537 N Clark St,Chicago,IL,60626,(773) 764-2200,,http://www.ethiopiandiamondcuisine.com
Ethiopian Diamond Restaurant,Ethiopian,109504,http://www.yelp.com/biz/ethiopian-diamond-restaurant-chicago,http://chicago.menupages.com/restaurants/ethiopian-diamond/,,,6120 N Broadway St,Chicago,IL,60660,(773) 338-6100,,http://www.ethiopiandiamondcuisine.com
Everest,French,660851,http://www.yelp.com/biz/everest-chicago,http://chicago.menupages.com/restaurants/everest/,,One Financial Place,440 S LaSalle St Fl 40,Chicago,IL,60605,(312) 663-8920,,http://www.everestrestaurant.com
Frontera Grill,Mexican,7612,http://www.yelp.com/biz/frontera-grill-chicago,http://chicago.menupages.com/restaurants/frontera-grill/,,,445 N Clark St,Chicago,IL,60654,(312) 661-1434,,http://www.rickbayless.com/restaurants/grillhtml
Gene & Georgetti,Italian,213188,http://www.yelp.com/biz/gene-and-georgetti-chicago,http://chicago.menupages.com/restaurants/gene-georgetti/,,,500 N Franklin St,Chicago,IL,60610,(312) 527-3718,,http://www.geneandgeorgetti.com
Gibsons Bar & Steakhouse,Steakhouses,148283,http://www.yelp.com/biz/gibsons-bar-and-steakhouse-chicago,http://chicago.menupages.com/restaurants/gibsons-steakhouse/,,,1028 N Rush St,Chicago,IL,60611,(312) 266-8999,,http://www.gibsonssteakhouse.com
Gino's East,Pizza,326362,http://www.yelp.com/biz/ginos-east-chicago,http://chicago.menupages.com/restaurants/ginos-east-3/,,,2801 N Lincoln Ave,Chicago,IL,60657,(773) 327-3737,,http://www.ginoseast.com/
Gino's East,Pizza,113766,http://www.yelp.com/biz/ginos-east-chicago-3,http://chicago.menupages.com/restaurants/ginos-east/,,,633 N Wells St,Chicago,IL,60654,(312) 943-1124,,http://www.ginoseast.com
Gino's East,Pizza,43572,http://www.yelp.com/biz/ginos-east-chicago-4,http://chicago.menupages.com/restaurants/ginos-east-2/,,,8725 W Higgins Rd,Chicago,IL,60686,(773) 444-2244,,http://www.ginoseast.com
Gino's East,Pizza,45048,http://www.yelp.com/biz/ginos-east-chicago-5,http://chicago.menupages.com/restaurants/ginos-east-4/,,,162 E Superior St,Chicago,IL,60611,(312) 266-3337,,http://www.ginoseast.com
Giordano's,Pizza,484305,http://www.yelp.com/biz/giordanos-chicagos-world-famous-stuffed-pizza-chicago,http://chicago.menupages.com/restaurants/giordanos-7/,,,5309 S Blackstone Ave,Chicago,IL,60686,(773) 947-0200,,http://www.giordanos.com
Girl & the Goat,American (New),5136756,http://www.yelp.com/biz/girl-and-the-goat-chicago,http://chicago.menupages.com/restaurants/girl-the-goat/,,,809 W Randolph St,Chicago,IL,60607,(312) 492-6262,,http://www.girlandthegoat.com
Goose Island BrewPub,Bars,8852,http://www.yelp.com/biz/goose-island-brewpub-chicago,http://chicago.menupages.com/restaurants/goose-island-brew-pub/,,,1800 N Clybourn Ave,Chicago,IL,60614,(312) 915-0071,,http://www.gooseisland.com/pages/clybourn_brewpub/65php
Goose Island Wrigleyville,Restaurants,66356,http://www.yelp.com/biz/goose-island-wrigleyville-chicago,http://chicago.menupages.com/restaurants/goose-island-brew-pub-2/,,,3535 N Clark St,Chicago,IL,60657,(773) 832-9040,,http://www.gooseisland.com
Graham Elliot,American (New),97692,http://www.yelp.com/biz/graham-elliot-chicago,http://chicago.menupages.com/restaurants/graham-elliot/,,,217 W Huron St,Chicago,IL,60654,(312) 624-9975,,http://www.grahamelliot.com
Green Zebra,Vegetarian,69899,http://www.yelp.com/biz/green-zebra-chicago,http://chicago.menupages.com/restaurants/green-zebra/,,,1460 W Chicago Ave,Chicago,IL,60642,(312) 243-7100,,http://www.greenzebrachicago.com
Heaven On Seven On Wabash,Cajun/Creole,109056,http://www.yelp.com/biz/heaven-on-seven-on-wabash-chicago,http://chicago.menupages.com/restaurants/heaven-on-seven-2/,,,111 N Wabash Ave Ste 700,Chicago,IL,60602,(312) 263-6443,,http://www.heavenonseven.com
Heaven On Seven,Southern,232874,http://www.yelp.com/biz/heaven-on-seven-chicago,http://chicago.menupages.com/restaurants/heaven-on-seven/,,,600 N Michigan Ave,Chicago,IL,60611,(312) 280-7774,,http://www.heavenonseven.com
HomeMade Pizza Co,Pizza,22336398,http://www.yelp.com/biz/homemade-pizza-co-chicago-3,http://chicago.menupages.com/restaurants/homemade-pizza-co-4/,,Hyde Park Shopping Center,1546 E 55th St,Chicago,IL,60615,(773) 493-2000,,http://www.homemadepizza.com
Hopleaf Bar,American (New),12531,http://www.yelp.com/biz/hopleaf-bar-chicago,http://chicago.menupages.com/restaurants/hopleaf/,,,5148 N Clark St,Chicago,IL,60640,(773) 334-9851,,http://www.hopleaf.com
Hot Chocolate,American (Traditional),59451,http://www.yelp.com/biz/hot-chocolate-chicago,http://chicago.menupages.com/restaurants/hot-chocolate/,,,1747 N Damen Ave,Chicago,IL,60647,(773) 489-1747,,http://www.hotchocolatechicago.com
Hot Doug's,Fast Food,36866,http://www.yelp.com/biz/hot-dougs-chicago,http://chicago.menupages.com/restaurants/hot-dougs/,,,3324 N California Ave,Chicago,IL,60618,(773) 279-9550,,http://www.hotdougs.com
Hugo's Frog Bar,Seafood,81362,http://www.yelp.com/biz/hugos-frog-bar-chicago,http://chicago.menupages.com/restaurants/hugos-frog-bar-fish-house/,,,1024 N Rush St,Chicago,IL,60611,(312) 640-0999,,http://www.hugosfrogbar.com
Hyde Park Gyros,American (Traditional),2484122,http://www.yelp.com/biz/hyde-park-gyros-chicago,http://chicago.menupages.com/restaurants/hyde-park-gyros/,,,1368 East 53rd St,Chicago,IL,60615,(773) 947-8229
India House Restaurant,Indian,62135,http://www.yelp.com/biz/india-house-restaurant-chicago-2,http://chicago.menupages.com/restaurants/india-house/,,,59 W Grand Ave,Chicago,IL,60610,(312) 645-9500,,http://www.indiahousechicago.com
Japonais Restaurant,Japanese,12136,http://www.yelp.com/biz/japonais-restaurant-chicago,http://chicago.menupages.com/restaurants/japonais/,,,600 W Chicago Ave,Chicago,IL,60610,(312) 822-9600,,http://www.japonaischicago.com
Keefer's Restaurant,Steakhouses,78981,http://www.yelp.com/biz/keefers-restaurant-chicago,http://chicago.menupages.com/restaurants/keefers/,,,20 W Kinzie St,Chicago,IL,60610,(312) 467-9525,,http://keefersrestaurant.com
Kiki's Bistro,French,109923,http://www.yelp.com/biz/kikis-bistro-chicago,http://chicago.menupages.com/restaurants/kikis-bistro/,,,900 N Franklin St,Chicago,IL,60610,(312) 335-5454,,http://www.kikisbistro.com
Kikuya Japanese Restaurant,Japanese,628276,http://www.yelp.com/biz/kikuya-japanese-restaurant-chicago,http://chicago.menupages.com/restaurants/kikuya/,,,1601 E 55th St,Chicago,IL,60615,(773) 667-3727,,http://www.kikuyaonline.com
Kuma's Corner,Pubs,42396,http://www.yelp.com/biz/kumas-corner-chicago,http://chicago.menupages.com/restaurants/kumas-corner/,,,2900 W Belmont Ave,Chicago,IL,60618,(773) 604-8769,,http://www.kumascorner.com
L2O,Seafood,265478,http://www.yelp.com/biz/l2o-chicago,http://chicago.menupages.com/restaurants/l2o/,,,2300 N Lincoln Park West,Chicago,IL,60614,(773) 868-0002,,http://www.l2orestaurant.com
La Cantina,Italian,1328018,http://www.yelp.com/biz/la-cantina-chicago,http://chicago.menupages.com/restaurants/la-cantina/,,,71 W Monroe St,Chicago,IL,60603,(312) 332-7005,,http://www.lacantina-chicago.com
La Petite Folie,French,3719904,http://www.yelp.com/biz/la-petite-folie-chicago,http://chicago.menupages.com/restaurants/la-petite-folie/,,,1504 E 55th St,Chicago,IL,60615,(773) 493-1394,,http://www.lapetitefolie.com/
La Sardine,French,832585,http://www.yelp.com/biz/la-sardine-chicago,http://chicago.menupages.com/restaurants/la-sardine/,,,111 N Carpenter St,Chicago,IL,60607,(312) 421-2800,,http://lasardine.com/
Lao Beijing,Chinese,1139317,http://www.yelp.com/biz/lao-beijing-chicago,http://chicago.menupages.com/restaurants/lao-beijing/,,,2138 S Archer Ave,Chicago,IL,60616,(312) 881-0168,,http://www.tonygourmetgroup.com/
Lao Shanghai Restaurant,Chinese,386035,http://www.yelp.com/biz/lao-shanghai-restaurant-chicago,,,,2163 S China Pl,Chicago,IL,60616,(312) 808-0830
Lao Sze Chuan,Chinese,42638,http://www.yelp.com/biz/lao-sze-chuan-chicago-2,http://chicago.menupages.com/restaurants/lao-sze-chuan/,,,2172 S Archer Ave,Chicago,IL,60616,(312) 326-5040,,http://www.TonyGourmetGroup.com
Lao You Ju,Lounges,11416059,http://www.yelp.com/biz/lao-you-ju-chicago,,,,2002 S Wentworth Ave,Chicago,IL,60616,(312) 225-7818
Le Bouchon,French,490101,http://www.yelp.com/biz/le-bouchon-chicago,http://chicago.menupages.com/restaurants/le-bouchon/,,,1958 N Damen Ave,Chicago,IL,60647,(773) 862-6600,,http://www.lebouchonofchicago.com
Le Colonial,Vietnamese,7677,http://www.yelp.com/biz/le-colonial-chicago,http://chicago.menupages.com/restaurants/le-colonial/,,,937 N Rush St,Chicago,IL,60611,(312) 255-0088,,http://www.lecolonialchicago.com
Leona's Restaurant,Italian,85486,http://www.yelp.com/biz/leonas-restaurant-chicago,http://chicago.menupages.com/restaurants/leonas-6/,,,1236 E 53rd St,Chicago,IL,60615,(773) 363-2600,,http://www.leonas.com
Les Nomades,French,223325,http://www.yelp.com/biz/les-nomades-chicago,http://chicago.menupages.com/restaurants/les-nomades/,,,222 E Ontario St,Chicago,IL,60611,(312) 649-9010,,http://www.lesnomadesnet
Longman & Eagle,Gastropubs,535071,http://www.yelp.com/biz/longman-and-eagle-chicago,http://chicago.menupages.com/restaurants/longman-eagle/,,,2657 N Kedzie Ave,Chicago,IL,60647,(773) 276-7110,,http://www.longmanandeagle.com
Lou Malnati's Pizzeria,Pizza,1109466,http://www.yelp.com/biz/lou-malnatis-pizza-chicago,http://chicago.menupages.com/restaurants/lou-malnatis-pizzeria-3/,,,3859 W Ogden Ave,Chicago,IL,60623,(773) 762-0800,,http://www.loumalnatis.com/
Lou Malnati's Pizzeria,Pizza,153168,http://www.yelp.com/biz/lou-malnatis-pizzeria-chicago,http://chicago.menupages.com/restaurants/lou-malnatis-pizzeria/,,,439 N Wells St,Chicago,IL,60654,(312) 828-9800,,http://www.loumalnatis.com
Lou Malnati's Pizzeria,Pizza,512950,http://www.yelp.com/biz/lou-malnatis-pizzeria-chicago-3,http://chicago.menupages.com/restaurants/lou-malnatis-2/,,,1520 N Damen St,Chicago,IL,60622,(773) 395-2400,,http://www.loumalnatis.com
Lou Malnati's Pizzeria,Pizza,127386,http://www.yelp.com/biz/lou-malnatis-pizzeria-chicago-4,http://chicago.menupages.com/restaurants/lou-malnatis-pizzeria-2/,,,958 W Wrightwood,Chicago,IL,60614,(773) 832-4030,,http://www.loumalnatis.com
Lou Mitchell's Restaurant & Bakery,Breakfast & Brunch,52233,http://www.yelp.com/biz/lou-mitchells-restaurant-and-bakery-chicago-2,http://chicago.menupages.com/restaurants/lou-mitchells/,,,565 W Jackson Blvd,Chicago,IL,60661,(312) 939-3111,,http://www.loumitchellsrestaurant.com
Lula Café,American (New),20162,http://www.yelp.com/biz/lula-cafe-chicago,http://chicago.menupages.com/restaurants/lula-cafe/,,,2537 N Kedzie Blvd,Chicago,IL,60647,(773) 489-9554,,http://www.lulacafe.com
MK Restaurant,American (New),48133,http://www.yelp.com/biz/mk-restaurant-chicago,http://chicago.menupages.com/restaurants/mk/,,,868 N Franklin St,Chicago,IL,60610,(312) 482-9179,,http://www.mkchicago.com
Manny's Cafeteria & Delicatessen,Delis,41563,http://www.yelp.com/biz/mannys-coffee-shop-and-deli-chicago,http://chicago.menupages.com/restaurants/mannys-coffee-shop-deli/,,,1141 S Jefferson St,Chicago,IL,60607,(312) 939-2855,,http://www.mannysdeli.com
Maravillas,Mexican,76195,http://www.yelp.com/biz/maravillas-chicago-2,http://chicago.menupages.com/restaurants/maravillas/,,,5506 S Lake Park Ave,Chicago,IL,60637,(773) 955-7680
Medici On 57th,Bakeries,50645,http://www.yelp.com/biz/medici-on-57th-chicago,http://chicago.menupages.com/restaurants/medici/,,,1327 E 57th St,Chicago,IL,60637,(773) 667-7394,,http://medici57.com
Mellow Yellow,American (Traditional),146944,http://www.yelp.com/biz/mellow-yellow-chicago,http://chicago.menupages.com/restaurants/mellow-yellow/,,,1508 E 53rd St,Chicago,IL,60615,(773) 667-2000
Mirabell Restaurant & Lounge,German,2314514,http://www.yelp.com/biz/mirabell-restaurant-and-lounge-chicago,http://chicago.menupages.com/restaurants/mirabell-restaurant-lounge/,,,3454 W Addison St,Chicago,IL,60618,(773) 463-1962,,http://www.mirabellrestaurant.com
Mon Ami Gabi,French,47265,http://www.yelp.com/biz/mon-ami-gabi-chicago,http://chicago.menupages.com/restaurants/mon-ami-gabi/,,,2300 N Lincoln Park West,Chicago,IL,60614,(773) 348-8886,,http://www.monamigabi.com
Morry's Deli,Delis,104250,http://www.yelp.com/biz/morrys-deli-chicago,http://chicago.menupages.com/restaurants/morrys-deli/,,,5500 S Cornell Ave,Chicago,IL,60637,(773) 363-3800,,http://www.morrysdeli.com/
Mr Beef,Fast Food,845276,http://www.yelp.com/biz/mr-beef-chicago-2,http://chicago.menupages.com/restaurants/mr-beef-on-orleans/,,,3917 N Harlem Ave,Chicago,IL,60634,(773) 283-7444
Mysore Woodlands,Vegetarian,68946,http://www.yelp.com/biz/mysore-woodlands-chicago,,,,2548 W Devon Ave,Chicago,IL,60659,(773) 338-8160,,http://www.mysorewoodlandsinfo/
Naha,American (New),180000,http://www.yelp.com/biz/naha-chicago,http://chicago.menupages.com/restaurants/naha/,,,500 N Clark St,Chicago,IL,60610,(312) 321-6242,,http://www.naha-chicago.com
Nathan's Chicago Style,American (Traditional),991465,http://www.yelp.com/biz/nathans-chicago-style-and-taste-of-jamaica-chicago,http://chicago.menupages.com/restaurants/nathans-chicago-style/,,,1372 E 53rd St,Chicago,IL,60615,(773) 288-5353
Nhu Lan,Vietnamese,73320,http://www.yelp.com/biz/nhu-lan-chicago,http://chicago.menupages.com/restaurants/nhu-lan-bakery-sandwiches/,,,2612 W Lawrence Ave,Chicago,IL,60625,(773) 878-9898,,http://www.nhulansbakery.com
Noodles Etc On Campus,Thai,109270,http://www.yelp.com/biz/noodles-etc-on-campus-chicago,http://chicago.menupages.com/restaurants/noodles-etc/,,,1333 E 57th St,Chicago,IL,60637,(773) 684-2801
North Pond,American (New),382480,http://www.yelp.com/biz/north-pond-chicago,http://chicago.menupages.com/restaurants/north-pond/,,,2610 N Cannon Dr,Chicago,IL,60614,(773) 477-5845,,http://www.northpondrestaurant.com
One Sixtyblue,American (New),106030,http://www.yelp.com/biz/one-sixtyblue-chicago,http://chicago.menupages.com/restaurants/one-sixtyblue/,,,1400 W Randolph St,Chicago,IL,60607,(312) 850-0303,,http://www.onesixtyblue.com
Park 52,American (New),526471,http://www.yelp.com/biz/park-52-chicago,http://chicago.menupages.com/restaurants/park-52/,,,5201 S Harper Ave,Chicago,IL,60615,(773) 241-5200,,http://park52chicago.com
Pegasus Restaurant & Taverna,Greek,97560,http://www.yelp.com/biz/pegasus-restaurant-and-taverna-chicago,http://chicago.menupages.com/restaurants/pegasus/,http://www.grubhub.com/chicago/pegasus-restaurant--taverna-130-s-halsted-chicago/,,130 S Halsted St,Chicago,IL,60661,(312) 226-3377,,http://www.pegasuschicago.com
Pepe's Mexican Food,Mexican,23763615,http://www.yelp.com/biz/pepes-mexican-food-chicago,http://chicago.menupages.com/restaurants/pepes-mexican-restaurant-2/,,,1310 E 53rd St,Chicago,IL,60615,(773) 752-9300
Perennial Virant,American (New),87496,http://www.yelp.com/biz/perennial-virant-chicago-2,http://chicago.menupages.com/restaurants/perennial/,,,1800 N Lincoln Ave,Chicago,IL,60686,(312) 981-7070,,http://www.perennialvirant.com
Piccolo Mondo,Italian,428667,http://www.yelp.com/biz/piccolo-mondo-chicago,http://chicago.menupages.com/restaurants/piccolo-mondo/,,,1642 E 56th St,Chicago,IL,60637,(773) 643-1106,,http://www.piccolomondous
Pizza Capri,Pizza,137916,http://www.yelp.com/biz/pizza-capri-chicago-3,http://chicago.menupages.com/restaurants/pizza-capri-3/,,,1501 E 53rd St,Chicago,IL,60615,(773) 324-7777
Pockets,Sandwiches,224211,http://www.yelp.com/biz/pockets-chicago-7,http://chicago.menupages.com/restaurants/pockets-7/,,,1309 E 53rd St,Chicago,IL,60615,(773) 667-1313,,http://www.pocketsonline.com/
Potbelly,Sandwiches,388581,http://www.yelp.com/biz/potbelly-chicago,http://chicago.menupages.com/restaurants/potbelly-sandwich-works-22/,,,5428 S Lake Park Ave,Chicago,IL,60615,(773) 493-0129,,http://www.potbelly.com
Quartino,Italian,50403,http://www.yelp.com/biz/quartino-chicago,http://chicago.menupages.com/restaurants/quartino/,,,626 N State St,Chicago,IL,60614,(312) 698-5000,,http://www.quartinochicago.com/
Rajun Cajun,Soul Food,70919,http://www.yelp.com/biz/rajun-cajun-chicago,http://chicago.menupages.com/restaurants/rajun-cajun/,,,1459 E 53rd St,Chicago,IL,60615,(773) 955-1145,,http://RajunRestaurant.com
Reza's Restaurant,Middle Eastern,485363,http://www.yelp.com/biz/rezas-restaurant-chicago-2,http://chicago.menupages.com/restaurants/rezas/,,,432 W Ontario St,Chicago,IL,60610,(312) 664-4500,,http://www.rezasrestaurant.com
Reza's Restaurant,Middle Eastern,237848,http://www.yelp.com/biz/rezas-restaurant-chicago-3,http://chicago.menupages.com/restaurants/rezas-2/,,,5255 N Clark St,Chicago,IL,60640,(773) 561-1898,,http://www.rezasrestaurant.com
Ribs 'N Bibs,Barbeque,433360,http://www.yelp.com/biz/ribs-n-bibs-chicago,http://chicago.menupages.com/restaurants/ribs-n-bibs/,,,5300 S Dorchester Ave,Chicago,IL,60615,(773) 493-0400
Rosebud On Rush,Italian,20234,http://www.yelp.com/biz/rosebud-on-rush-chicago,http://chicago.menupages.com/restaurants/rosebud-on-rush/,,,720 N Rush St,Chicago,IL,60611,(312) 266-6444,,http://www.rosebudrestaurants.com/rest3php
Rosebud Prime,Steakhouses,401411,http://www.yelp.com/biz/rosebud-prime-chicago,http://chicago.menupages.com/restaurants/rosebud-prime/,,,1 S Dearborn,Chicago,IL,60605,(312) 384-1900
Rosebud Steakhouse,Steakhouses,138942,http://www.yelp.com/biz/rosebud-steakhouse-chicago,http://chicago.menupages.com/restaurants/rosebud-steakhouse/,,,192 E Walton Pl,Chicago,IL,60611,(312) 397-1000,,http://www.rosebudrestaurants.com
Rosebud Theater District,Italian,423212,http://www.yelp.com/biz/rosebud-theater-district-chicago-2,http://chicago.menupages.com/restaurants/rosebud-express/,,,70 W Madison St,Chicago,IL,60602,(312) 332-9500,,http://rosebudrestaurants.com/rest6php
Rosebud Trattoria,Italian,67176,http://www.yelp.com/biz/rosebud-trattoria-chicago,http://chicago.menupages.com/restaurants/rosebud-trattoria/,,,445 N Dearborn,Chicago,IL,60654,(312) 832-7700,,http://rosebudrestaurants.com/rest9php
Sabatino's Restaurant & Lounge,Italian,65461,http://www.yelp.com/biz/sabatinos-restaurant-and-lounge-chicago,http://chicago.menupages.com/restaurants/sabatinos/,,,4441 W Irving Park Rd,Chicago,IL,60641,(773) 283-8331,,http://www.sabatinoschicago.com
Salonica Restaurant,Diners,72784,http://www.yelp.com/biz/salonica-restaurant-chicago,http://chicago.menupages.com/restaurants/salonica/,,,1440 E 57th St,Chicago,IL,60637,(773) 752-3899
Salpicón,Mexican,7647,http://www.yelp.com/biz/salpicon-chicago,http://chicago.menupages.com/restaurants/salpicon/,,,1252 N Wells St,Chicago,IL,60610,(312) 988-7811,,http://www.salpicon.com
Sammy's Touch,Diners,71603,http://www.yelp.com/biz/sammys-touch-chicago-2,http://chicago.menupages.com/restaurants/sammys-touch/,,,5659 S Cottage Grove Ave,Chicago,IL,60637,(773) 288-2645
Santorini,Greek,2937772,http://www.yelp.com/biz/santorini-chicago,http://chicago.menupages.com/restaurants/santorini/,,,800 W Adams St,Chicago,IL,60607,(312) 829-8820,,http://www.santorinichicago.com
Seoul Corea,Korean,1281277,http://www.yelp.com/biz/seoul-corea-chicago,http://chicago.menupages.com/restaurants/seoul-corea/,,,1603 E 55th St,Chicago,IL,60615,(773) 288-1795
Sepia,American (New),45050,http://www.yelp.com/biz/sepia-chicago,http://chicago.menupages.com/restaurants/sepia/,,,123 N Jefferson St,Chicago,IL,60661,(312) 441-1920,,http://www.sepiachicago.com
Seven Ten Lanes,Lounges,477795,http://www.yelp.com/biz/seven-ten-lanes-chicago,http://chicago.menupages.com/restaurants/seven-ten-lanes/,,,1055 E 55th St,Chicago,IL,60615,(773) 347-2695
Shaw's Crab House,Seafood,177230,http://www.yelp.com/biz/shaws-crab-house-chicago,http://chicago.menupages.com/restaurants/shaws-crab-house/,,,21 E Hubbard St,Chicago,IL,60611,(312) 527-2722,,http://www.shawscrabhouse.com
Shinju Sushi,Japanese,149416,http://www.yelp.com/biz/shinju-sushi-chicago,http://chicago.menupages.com/restaurants/shinju-sushi/,,,1375 E 53rd St,Chicago,IL,60615,(773) 966-6669,(773) 966-6466,http://www.shinjusushi.com/
Siam Restaurant,Thai,1330065,http://www.yelp.com/biz/siam-restaurant-chicago-2,http://chicago.menupages.com/restaurants/siam/,,,1639 E 55th St,Chicago,IL,60615,(773) 324-9296
Silver Spoon Restaurant,Thai,71618,http://www.yelp.com/biz/silver-spoon-restaurant-chicago,http://chicago.menupages.com/restaurants/silver-spoon/,,,710 N Rush St,Chicago,IL,60611,(312) 944-7100,,http://www.silverspoonchicago.com/
Smoque BBQ,Barbeque,49273,http://www.yelp.com/biz/smoque-bbq-chicago,http://chicago.menupages.com/restaurants/smoque-bbq/,,,3800 N Pulaski Rd,Chicago,IL,60641,(773) 545-7427,,http://www.smoquebbq.com
Spiaggia,Italian,54007,http://www.yelp.com/biz/spiaggia-chicago-2,http://chicago.menupages.com/restaurants/spiaggia/,,,980 N Michigan Ave Fl 2,Chicago,IL,60611,(312) 280-2750,,http://www.spiaggiarestaurant.com
Szalas Restaurant,Polish,2673802,http://www.yelp.com/biz/szalas-restaurant-chicago,http://chicago.menupages.com/restaurants/szalas/,,,5214 S Archer Ave,Chicago,IL,60632,(773) 582-0300,,http://www.szalasrestaurant.com
Table Fifty-Two,American (New),792311,http://www.yelp.com/biz/table-fifty-two-chicago,http://chicago.menupages.com/restaurants/table-fifty-two-52/,,,52 W Elm St,Chicago,IL,60610,(312) 573-4000,,http://www.tablefifty-two.com
Thai 55 Restaurant,Thai,197992,http://www.yelp.com/biz/thai-55th-restaurant-chicago-2,http://chicago.menupages.com/restaurants/thai-55/,,,1607 East 55th St,Chicago,IL,60615,(773) 363-7119,,http://thai55restaurant.com
The Big Easy,Cajun/Creole,793300,http://www.yelp.com/biz/the-big-easy-chicago,http://chicago.menupages.com/restaurants/the-big-easy/,,,1660 E 55th St,Chicago,IL,60637,(773) 330-0440
The Bongo Room,American (New),18261,http://www.yelp.com/biz/the-bongo-room-chicago,http://chicago.menupages.com/restaurants/bongo-room/,,,1470 N Milwaukee Ave,Chicago,IL,60622,(773) 489-0690,,http://thebongoroom.com
The Bristol,American (New),47261,http://www.yelp.com/biz/the-bristol-chicago,http://chicago.menupages.com/restaurants/the-bristol/,,,2152 N Damen Ave,Chicago,IL,60647,(773) 862-5555,,http://thebristolchicago.com
The Gage,Gastropubs,46462,http://www.yelp.com/biz/the-gage-chicago,http://chicago.menupages.com/restaurants/the-gage/,,,24 S Michigan Ave,Chicago,IL,60603,(312) 372-4243,,http://www.thegagechicago.com
The Italian Village Restaurants,Nightlife,116778,http://www.yelp.com/biz/the-italian-village-restaurants-chicago,http://chicago.menupages.com/restaurants/the-village/,,,71 W Monroe St,Chicago,IL,60603,(312) 332-7005,,http://www.italianvillage-chicago.com/
The Nile Restaurant,Middle Eastern,579703,http://www.yelp.com/biz/the-nile-restaurant-chicago,http://chicago.menupages.com/restaurants/the-nile/,,,1611 E 55th St,Chicago,IL,60615,(773) 324-9499
The Original Pancake House,Breakfast & Brunch,209362,http://www.yelp.com/biz/the-original-pancake-house-chicago,http://chicago.menupages.com/restaurants/original-pancake-house-2/,,,1517 E Hyde Park Blvd,Chicago,IL,60615,(773) 288-2322,,http://www.originalpancakehouse.com
The Publican,Pubs,50924,http://www.yelp.com/biz/the-publican-chicago,http://chicago.menupages.com/restaurants/the-publican/,,,837 W Fulton Market,Chicago,IL,60607,(312) 733-9555,,http://thepublicanrestaurant.com/
The Purple Pig,Modern European,460686,http://www.yelp.com/biz/the-purple-pig-chicago,http://chicago.menupages.com/restaurants/the-purple-pig/,,,500 N Michigan Ave,Chicago,IL,60611,(312) 464-1744,,http://thepurplepigchicago.com/
The Rosebud,Italian,712475,http://www.yelp.com/biz/the-rosebud-chicago,http://chicago.menupages.com/restaurants/the-rosebud/,,,1500 W Taylor St,Chicago,IL,60607,(312) 942-1117,,http://rosebudrestaurants.com
The Sit Down Cafe & Sushi Bar,Sushi Bars,88301,http://www.yelp.com/biz/the-sit-down-cafe-and-sushi-bar-chicago,http://chicago.menupages.com/restaurants/the-sit-down-cafe-sushi-bar/,,,1312 E 53rd St,Chicago,IL,60615,(773) 324-3700,,http://www.thesitdown53.com
The Snail Thai Cuisine,Thai,785201,http://www.yelp.com/biz/the-snail-thai-cuisine-chicago,http://chicago.menupages.com/restaurants/the-snail/,,,1649 E 55th St,Chicago,IL,60615,(773) 667-5423,,http://www.snailthai.com/mainhtml
Topolobampo,Mexican,7612,http://www.yelp.com/biz/topolobampo-chicago,http://chicago.menupages.com/restaurants/topolobampo/,,,445 N Clark St,Chicago,IL,60654,(312) 661-1434,,http://www.rickbayless.com/restaurants/topolobampohtml
Tru,American (New),87373,http://www.yelp.com/biz/tru-chicago,http://chicago.menupages.com/restaurants/tru/,,,676 N St Clair St,Chicago,IL,60611,(312) 202-0001,,http://www.TRUrestaurant.com
Twin Anchors Restaurant & Tavern,American (Traditional),43668,http://www.yelp.com/biz/twin-anchors-restaurant-and-tavern-chicago,http://chicago.menupages.com/restaurants/twin-anchors-restaurant/,,,1655 N Sedgwick St,Chicago,IL,60614,(312) 266-1616,,http://www.twinanchorsribs.com/
Urban Belly,Asian Fusion,72576,http://www.yelp.com/biz/urban-belly-chicago,http://chicago.menupages.com/restaurants/urban-belly/,,,3053 N California Ave,Chicago,IL,60618,(773) 583-0500,,http://www.urbanbellychicago.com
Valois,Breakfast & Brunch,74550,http://www.yelp.com/biz/valois-chicago,http://chicago.menupages.com/restaurants/valois-restaurant/,,,1518 E 53rd St,Chicago,IL,60615,(773) 667-0647,,http://www.valoisrestaurant.com/
Veerasway,Indian,265415,http://www.yelp.com/biz/veerasway-chicago,,,,844 W Randolph St,Chicago,IL,60607,(312) 491-0844,,http://www.veerasway.com
Vivere,Italian,7488,http://www.yelp.com/biz/vivere-chicago,http://chicago.menupages.com/restaurants/vivere/,,,71 W Monroe St,Chicago,IL,60603,(312) 332-4040,,http://vivere-chicago.com/
Webster's Wine Bar,Wine Bars,7829,http://www.yelp.com/biz/websters-wine-bar-chicago,http://chicago.menupages.com/restaurants/websters-wine-bar/,,,1480 W Webster Ave,Chicago,IL,60614,(773) 868-0608,,http://www.websterwinebar.com/
West Town Tavern,American (New),79077,http://www.yelp.com/biz/west-town-tavern-chicago,http://chicago.menupages.com/restaurants/west-town-tavern/,,,1329 W Chicago Ave,Chicago,IL,60642,(312) 666-6175,,http://www.westtowntavern.com/
Wildfire,American (Traditional),23651,http://www.yelp.com/biz/wildfire-chicago,http://chicago.menupages.com/restaurants/wildfire/,,,159 W Erie St,Chicago,IL,60654,(312) 787-9000,,http://www.wildfirerestaurant.com/chicago
Wishbone,Breakfast & Brunch,50923,http://www.yelp.com/biz/wishbone-chicago,http://chicago.menupages.com/restaurants/wishbone/,,,1001 W Washington Blvd,Chicago,IL,60607,(312) 850-2663,,http://www.wishbonechicago.com
Wishbone,Southern,45722,http://www.yelp.com/biz/wishbone-chicago-2,http://chicago.menupages.com/restaurants/wishbone-2/,,,3300 N Lincoln Ave,Chicago,IL,60657,(773) 549-2663,,http://www.wishbonechicago.com
Wok N Roll,Chinese,495247,http://www.yelp.com/biz/wok-n-roll-chicago,http://chicago.menupages.com/restaurants/wok-n-roll/,,,1408 E 53rd St,Chicago,IL,60615,(773) 643-3500
XOCO,Mexican,109717,http://www.yelp.com/biz/xoco-chicago,http://chicago.menupages.com/restaurants/xoco/,,,449 N Clark St,Chicago,IL,60654,(312) 334-3688,,http://www.rickbayless.com/restaurants/xocohtml
Zaleski & Horvath MarketCafe,Coffee & Tea,7818891,http://www.yelp.com/biz/zaleski-and-horvath-marketcafe-chicago-3,http://chicago.menupages.com/restaurants/zaleski-horvath-marketcafe-2/,,,1323 E 57th St,Chicago,IL,60637,(773) 538-7372,,http://www.zhmarketcafe.com/indexhtml
mhenry,Breakfast & Brunch,73228,http://www.yelp.com/biz/m-henry-chicago,http://chicago.menupages.com/restaurants/m-henry/,,,5707 N Clark St,Chicago,IL,60660,(773) 561-1600,,http://mhenrynet/
sola,American (New),118624,http://www.yelp.com/biz/sola-chicago,http://chicago.menupages.com/restaurants/sola/,,,3868 N Lincoln Ave,Chicago,IL,60613,(773) 327-3868,,http://www.sola-restaurant.com
Abbey Pub,,9025,http://www.yelp.com/biz/abbey-pub-and-restaurant-chicago,,,,3420 W Grace St,Chicago,IL
Abundance Bakery,,6421531,http://www.yelp.com/biz/abundance-bakery-chicago,,,,105 E 47th St,Chicago,IL
Adobo Grill,,52316,http://www.yelp.com/biz/adobo-grill-chicago-2,,,,1601 N Wells St,Chicago,IL
Alhambra Palace,,225081,http://www.yelp.com/biz/alhambra-palace-restaurant-chicago,,,,1240 W Randolph St,Chicago,IL
Arya Bhavan,,1127475,http://www.yelp.com/biz/arya-bhavan-chicago,,,,2508 W Devon Ave,Chicago,IL
Bacino's Pizza of Lincoln Park,,408981,http://www.yelp.com/biz/bacinos-of-lincoln-park-chicago,,http://www.grubhub.com/chicago/bacinos-of-lincoln-park/,,2204 N Lincoln Ave,Chicago,IL
Banana Leaf Restaurant,,14988810,http://www.yelp.com/biz/the-banana-leaf-chicago,,,,1948 E 79th St,Chicago,IL
Beggars Pizza,,419620,http://www.yelp.com/biz/beggars-pizza-chicago-2,,,,310 S Clinton St,Chicago,IL
Billy Goat Tavern & Grill,,61039,http://www.yelp.com/biz/billy-goat-tavern-and-grill-chicago-3,,,,1535 W Madison Ave,Chicago,IL
BJ's Market and Bakery,,5114837,http://www.yelp.com/biz/bjs-market-and-bakery-chicago-2,,,,1156 W 79th St,Chicago,IL
Bobak Sausage Company,,6677890,http://www.yelp.com/biz/bobak-sausage-company-chicago,,,,5275 S Archer Ave,Chicago,IL
Carbón,,19282320,http://www.yelp.com/biz/carbon-chicago,,http://www.grubhub.com/chicago/carbon-live-fire-mexican-grill/,,300 W 26th St,Chicago,IL
C'est Si Bon!,,5414997,http://www.yelp.com/biz/cest-si-bon-chicago,,,,643 E 47th St,Chicago,IL
Chicago Sweet Connection Bakery,,1609895,http://www.yelp.com/biz/chicago-sweet-connection-chicago,,,,5569 N Northwest Hwy,Chicago,IL
Chicago Joe's,,306878,http://www.yelp.com/biz/chicago-joes-chicago,,http://www.grubhub.com/chicago/chicago-joes/,,2256 W Irving Park Rd,Chicago,IL
Churro Factory,,1077813,http://www.yelp.com/biz/churro-factory-chicago,,,,2214 S Wolcott Ave,Chicago,IL
Connie's Pizza,,1213506,http://www.yelp.com/biz/connies-pizza-chicago,,http://www.grubhub.com/chicago/connies-pizza-archer-ave/,,2373 S Archer Ave,Chicago,IL
Cubby Bear,,7704,http://www.yelp.com/biz/the-cubby-bear-chicago,,,,1059 W Addison St,Chicago,IL
Eli's Cheesecake,,318968,http://www.yelp.com/biz/elis-cheesecake-world-chicago,,,,6701 W Forest Preserve Dr,Chicago,IL
Franco's Ristorante,,3046438,http://www.yelp.com/biz/francos-ristorante-chicago,,,,300 W 31st St,Chicago,IL
The Fudge Pot,,3685017,http://www.yelp.com/biz/the-fudge-pot-chicago,,,,1532 N Wells St,Chicago,IL
Guey Lon,,4801231,http://www.yelp.com/biz/guey-lon-chicago,,,,3968 N Elston Ave,Chicago,IL
Harold's Chicken #71,,15126505,,,http://www.grubhub.com/chicago/harolds-chicken-41-west-loop/,,2109 S Wabash Ave,Chicago,IL
Harry Caray's,,18016,http://www.yelp.com/biz/harry-carays-italian-steakhouse-chicago,,,,33 W Kinzie St,Chicago,IL
Hashbrowns,,61038,http://www.yelp.com/biz/hashbrowns-chicago,,,,731 W Maxwell St,Chicago,IL
Home Run Inn Pizza,,20052865,http://www.yelp.com/biz/home-run-inn-chicago,,,,4254 W 31st St,Chicago,IL
Iyanze,,1987627,http://www.yelp.com/biz/iyanze-restaurant-chicago,,http://www.grubhub.com/chicago/iyanze/,,4623 N Broadway St,Chicago,IL
JR Dessert Bakery,,4970110,http://www.yelp.com/biz/jrs-dessert-bakery-chicago,,,,2841 W Howard St,Chicago,IL
Kasia's Deli,,79079,http://www.yelp.com/biz/kasias-polish-delicatessen-chicago,,,,2101 W Chicago Ave,Chicago,IL
La Justicia,,4435193,http://www.yelp.com/biz/la-justicia-restaurant-chicago,,,,3901 W 26th St,Chicago,IL
Lagniappe-Creole Cajun Joynt,,63005,http://www.yelp.com/biz/lagniappe-creole-cajun-joynt-chicago,,,,1525 W 79th St,Chicago,IL
Loving Hut,,1211418,http://www.yelp.com/biz/the-loving-hut-chicago,,,,5812 N Broadway St,Chicago,IL
The Noodle Vietnamese Cuisine,,1120526,,,,,2336 S Wentworth Ave,Chicago,IL
Oak Street Beach Café,,3938952,http://www.yelp.com/biz/oak-street-beach-cafe-chicago,,,,5700 S Cicero Ave,Chicago,IL
O'Brien's,,85504,http://www.yelp.com/biz/o-briens-restaurant-chicago-2,,,,1528 N Wells St,Chicago,IL
Parrot Cage Restaurant,,23268925,http://www.yelp.com/biz/parrot-cage-restaurant-chicago,,,,7059 S South Shore Dr,Chicago,IL
Polo Café & Catering,,6173918,http://www.yelp.com/biz/polo-cafe-and-catering-bridgeport-usa-chicago,,,,3322 S Morgan St,Chicago,IL
Reggio's Pizza,,50472,http://www.yelp.com/biz/reggios-pizza-chicago-3,,http://www.grubhub.com/chicago/reggios-pizza/,,1339 S Halsted St,Chicago,IL
Ricobene's,,476132,http://www.yelp.com/biz/ricobenes-chicago-4,,http://www.grubhub.com/chicago/ricobenes/,,252 W 26th St,Chicago,IL
Robinson's No.1 Ribs,,1282202,http://www.yelp.com/biz/robinsons-1-ribs-inc-chicago,,http://www.grubhub.com/chicago/robinsons-no-1-ribs/,,225 S Canal St,Chicago,IL
Sabor Latino,,16459299,http://www.yelp.com/biz/sabor-latino-chicago,,,,3808 W North Ave,Chicago,IL
The Smoke Daddy,,9179,http://www.yelp.com/biz/the-smoke-daddy-chicago,,http://www.grubhub.com/chicago/smoke-daddy/,,1804 W Division St,Chicago,IL
Star of Siam,,42454,http://www.yelp.com/biz/star-of-siam-chicago,,http://www.grubhub.com/chicago/star-of-siam/,,11 E Illinois St,Chicago,IL
Starfruit Cafe,,416033,http://www.yelp.com/biz/starfruit-chicago-3,,,,2142 N Halsted St,Chicago,IL
Texas de Brazil,,76367,http://www.yelp.com/biz/texas-de-brazil-chicago,,,,51 E Ohio St,Chicago,IL
Timothy O'Toole's Pub,,24079,http://www.yelp.com/biz/timothy-o-tooles-chicago,,,,622 N Fairbanks Ct,Chicago,IL
Tuscany,,82424,http://www.yelp.com/biz/tuscany-restaurant-chicago,,,,1014 W Taylor St,Chicago,IL
Tutto Italiano,,620690,http://www.yelp.com/biz/tutto-italiano-chicago,,,,501 S Wells St,Chicago,IL
Vee Vee's African Cuisine,,6561530,,,,,6232 N Broadway St,Chicago,IL
Vermilion,,203163,http://www.yelp.com/biz/vermilion-chicago-2,,,,10 W Hubbard St,Chicago,IL
Vienna Beef/Gold Coast Dog,,47410,http://www.yelp.com/biz/gold-coast-dogs-chicago-3,,,,159 N Wabash St,Chicago,IL
Dominick's,,80803,,,,,255 E Grand Ave
Garrett Popcorn Shops,,171769,http://www.yelp.com/biz/garrett-popcorn-shops-chicago-8#query:garret%20popcorn%20shops
Birchwood Kitchen,,67798,http://www.yelp.com/biz/birchwood-kitchen-chicago,,,,2211 West North Ave,,,,,,www.birchwoodkitchen.com/
Belly Shack,,198427,http://www.yelp.com/biz/belly-shack-chicago-2,,,,1912 North Western Ave,,,,,,bellyshack.com/
90 Miles Cuban Café,,88435,http://www.yelp.com/biz/90-miles-cuban-cafe-chicago,,,,3101 North Clybourn Avenue,,,,,,www.90milescubancafe.com
90 Miles Cuban Café,,85762,http://www.yelp.com/biz/90-miles-cuban-cafe-chicago-2,,,,2540 W Armitage Ave,,,,,,www.90milescubancafe.com
HB,,98802,http://www.yelp.com/biz/hb-restaurant-chicago,,,,3404 North Halsted St,,,,,,homebistrochicago.com
Sabor Saveur,,203238,http://www.yelp.com/biz/sabor-saveur-chicago,,,,2013 West Division St,,,,,,www.saborsaveur.com/ 
Crisp,,52159,http://www.yelp.com/biz/crisp-chicago,,,,2940 North Broadway St,,,,,,www.crisponline.com
Arami,,5945535,http://www.yelp.com/biz/arami-chicago,,,,1829 W Chicago Ave,,,,,,www.aramichicago.com
Bistronomic,,16715614,http://www.yelp.com/biz/bistronomic-chicago,,,,840 N Wabash Ave,,,,,,www.bistronomicne
Bistro One West,,13725049,http://www.yelp.com/biz/bistro-one-west-st-charles,,,,1 W Illinois St,,,,,,www.bistro1west.com
Chicago Cut Steakhouse,,9354779,http://www.yelp.com/biz/chicago-cut-steakhouse-chicago,,,,300 N LaSalle St,,,,,,www.chicagocutsteakhouse.com
Cumin,,3619112,http://www.yelp.com/biz/cumin-chicago,,,,1414 N Milwaukee Ave,,,,,,www.cumin-chicago.com
Davanti Enoteca,,9028046,http://www.yelp.com/biz/davanti-enoteca-chicago,,,,1359 W Taylor St,,,,,,www.davantichicago.com
Due Lire,,7434148,http://www.yelp.com/biz/due-lire-vino-and-cucina-chicago,,,,4520 N Lincoln Ave,,,,,,www.due-lire.com
The Florentine,,7732881,http://www.yelp.com/biz/the-florentine-chicago,,,,151 W Adams St
Henri,,7839938,http://www.yelp.com/biz/henri-chicago,,,,18 S Michigan Ave,,,,,,www.henrichicago.com
Leopold,,14885725,http://www.yelp.com/biz/leopold-chicago,,,,1450 W Chicago Ave,,,,,,www.leopoldchicago.com
Lillie'S Q,,6606754,http://www.yelp.com/biz/lillies-q-chicago,,,,1856 W North Ave,,,,,,www.lilliesq.com
Maude'S Liquor Bar,,11349398,http://www.yelp.com/biz/maudes-liquor-bar-chicago,,,,840 W Randolph St,,,,,,www.maudesliquorbar.com
The Portage,,11056585,http://www.yelp.com/biz/the-portage-chicago-2,,,,3938 N Central Ave,,,,,,www.theportagechicago.com
Ruxbin Kitchen,,4293699,http://www.yelp.com/biz/ruxbin-chicago,,,,851 N Ashland Ave,,,,,,www.ruxbinchicago.com
Sable Kitchen & Bar,,1685777,http://www.yelp.com/biz/sable-kitchen-and-bar-chicago,,,,505 N State St,,,,,,www.sablechicago.com
Saigon Sisters,,9679349,http://www.yelp.com/biz/saigon-sisters-chicago-2,,,,567 W Lake St,,,,,,www.saigonsisters.com
Silom12,,16776779,http://www.yelp.com/biz/silom-12-chicago,,,,1846–48 N Milwaukee Ave,,,,,,www.silom12chicago.com
Vincent,,9144333,http://www.yelp.com/biz/vincent-chicago,,,,1475 W Balmoral Ave,,,,,,vincentchicago.com
Hubbard Inn,,15559597,http://www.yelp.com/biz/hubbard-inn-chicago-2,,,,110 W Hubbard St,,,,,,www.hubbardinn.com
Paris Club,,16003471,http://www.yelp.com/biz/paris-club-chicago,,,,59 W Hubbard St,,,,,,www.parisclubchicago.com
Del Seoul,,6799168,http://www.yelp.com/biz/del-seoul-chicago,,,,2568 N Clark St,,,,,,www.delseoul.com
Next,,4617654,http://www.yelp.com/biz/next-restaurant-chicago-2,,,,953 W Fulton Market St,,,,,,www.nextrestaurant.com
Chicago Q,,7681543,http://www.yelp.com/biz/chicago-q-chicago,,,,1160 N Dearborn St,,,,,,www.chicagoqrestaurant.com
Ryba's Fudge Shops,,3757103,http://www.yelp.com/biz/rybas-fudge-shops-chicago-2,,,,600 East Grand Ave
Lou Malnati's Pizzeria,,50036,http://www.yelp.com/biz/lou-malnatis-chicago,,,,805 S State St
Paprika,,1179314,http://www.yelp.com/biz/paprika-indian-gourmet-restaurant-chicago,,,,2547 W Lawrence Ave,,,,,,http://www.paprikachicago.com
Polka Sausage and Deli,,24282400,http://www.yelp.com/biz/polka-home-style-sausage-chicago,,,,8753 Commercial Ave,Chicago,IL
Original Rainbow Cone,,2168095,http://www.yelp.com/biz/original-rainbow-cone-chicago,,,,9233 S Western Ave,Chicago,IL